NORAD_CAT_ID,OBJECT_NAME,OBJECT_TYPE,EPOCH,MEAN_MOTION,ECCENTRICITY,INCLINATION,RA_OF_ASC_NODE,ARG_OF_PERICENTER,MEAN_ANOMALY,BSTAR,MEAN_MOTION_DOT,MEAN_MOTION_DDOT,TLE_LINE0,TLE_LINE1,TLE_LINE2,SEMIMAJOR_AXIS,PERIOD,APOGEE,PERIGEE,DECAYED
55785.0,STARLINK-5818,PAYLOAD,2024-07-17 22:14:31,14.98343933,0.0002818,70.001,276.8313,263.266,96.8179,-0.00032648,-3.988e-05,0.0,0 STARLINK-5818,1 55785U 23028AW  24199.92675151 -.00003988  00000-0 -32648-3 0  9992,2 55785  70.0010 276.8313 0002818 263.2660  96.8179 14.98343933 77184,6950.15,96.106,573.973,570.056,0.0
55785.0,STARLINK-5818,PAYLOAD,2024-07-18 04:39:03,14.98330952,0.0003195,69.9998,276.156,266.4192,93.6601,6.0915e-06,-2e-07,0.0,0 STARLINK-5818,1 55785U 23028AW  24200.19379164 -.00000020  00000-0  60915-5 0  9992,2 55785  69.9998 276.1560 0003195 266.4192  93.6601 14.98330952 77213,6950.19,96.107,574.276,569.834,0.0
55785.0,STARLINK-5818,PAYLOAD,2024-07-18 14:15:51,14.98337406,0.0003148,69.9997,275.1453,270.0171,90.0628,7.3031e-05,7.79e-06,0.0,0 STARLINK-5818,1 55785U 23028AW  24200.59434548  .00000779  00000-0  73031-4 0  9996,2 55785  69.9997 275.1453 0003148 270.0171  90.0628 14.98337406 77286,6950.17,96.107,574.223,569.847,0.0
55785.0,STARLINK-5818,PAYLOAD,2024-07-19 04:41:04,14.98327013,0.0003021,69.9997,273.6303,269.0937,90.9876,7.9119e-05,8.51e-06,0.0,0 STARLINK-5818,1 55785U 23028AW  24201.19519164  .00000851  00000-0  79119-4 0  9995,2 55785  69.9997 273.6303 0003021 269.0937  90.9876 14.98327013 77367,6950.202,96.107,574.167,569.967,0.0
55785.0,STARLINK-5818,PAYLOAD,2024-07-19 14:17:53,14.98324782,0.0002914,70.0001,272.6194,265.3254,94.7572,0.00010811,1.197e-05,0.0,0 STARLINK-5818,1 55785U 23028AW  24201.59575247  .00001197  00000-0  10811-3 0  9990,2 55785  70.0001 272.6194 0002914 265.3254  94.7572 14.98324782 77437,6950.209,96.107,574.099,570.049,0.0
55785.0,STARLINK-5818,PAYLOAD,2024-07-19 22:18:32,14.98333551,0.0003388,69.9993,271.7786,269.6621,90.415,5.8992e-05,6.11e-06,0.0,0 STARLINK-5818,1 55785U 23028AW  24201.92954701  .00000611  00000-0  58992-4 0  9996,2 55785  69.9993 271.7786 0003388 269.6621  90.4150 14.98333551 77486,6950.182,96.107,574.402,569.692,0.0
55785.0,STARLINK-5818,PAYLOAD,2024-07-20 04:43:05,14.98330017,0.0003249,69.9995,271.1052,268.3244,91.7543,-1.1611e-05,-2.32e-06,0.0,0 STARLINK-5818,1 55785U 23028AW  24202.19659150 -.00000232  00000-0 -11611-4 0  9994,2 55785  69.9995 271.1052 0003249 268.3244  91.7543 14.98330017 77519,6950.193,96.107,574.316,569.8,0.0
55785.0,STARLINK-5818,PAYLOAD,2024-07-20 14:19:53,14.98336557,0.0003089,69.9997,270.0951,265.2148,94.8659,1.4992e-05,8.6e-07,0.0,0 STARLINK-5818,1 55785U 23028AW  24202.59714576  .00000086  00000-0  14992-4 0  9992,2 55785  69.9997 270.0951 0003089 265.2148  94.8659 14.98336557 77582,6950.173,96.107,574.185,569.891,0.0
55785.0,STARLINK-5818,PAYLOAD,2024-07-20 22:20:34,14.98333993,0.0002946,70.0003,269.2507,275.0893,84.9929,-0.00010101,-1.298e-05,0.0,0 STARLINK-5818,1 55785U 23028AW  24202.93095016 -.00001298  00000-0 -10101-3 0  9996,2 55785  70.0003 269.2507 0002946 275.0893  84.9929 14.98333993 77634,6950.181,96.107,574.093,569.998,0.0
55785.0,STARLINK-5818,PAYLOAD,2024-07-21 04:45:06,14.98328155,0.000313,69.9995,268.5774,266.2804,93.7997,-1.7417e-06,-1.14e-06,0.0,0 STARLINK-5818,1 55785U 23028AW  24203.19799028 -.00000114  00000-0 -17417-5 0  9994,2 55785  69.9995 268.5774 0003130 266.2804  93.7997 14.98328155 77669,6950.199,96.107,574.239,569.888,0.0
55785.0,STARLINK-5818,PAYLOAD,2024-07-21 14:21:54,14.9832621,0.0003001,69.9994,267.5681,262.034,98.0478,1.2587e-05,5.7e-07,0.0,0 STARLINK-5818,1 55785U 23028AW  24203.59855192  .00000057  00000-0  12587-4 0  9999,2 55785  69.9994 267.5681 0003001 262.0340  98.0478 14.98326210 77730,6950.205,96.107,574.155,569.984,0.0
55785.0,STARLINK-5818,PAYLOAD,2024-07-22 04:47:05,14.98428634,0.0003175,69.9993,266.0534,278.9041,81.1759,-0.0016473,-0.00019744,0.0,0 STARLINK-5818,1 55785U 23028AW  24204.19937228 -.00019744  00000-0 -16473-2 0  9998,2 55785  69.9993 266.0534 0003175 278.9041  81.1759 14.98428634 77813,6949.888,96.101,573.959,569.546,0.0
55785.0,STARLINK-5818,PAYLOAD,2024-07-22 09:35:30,14.98363336,0.0002955,69.9995,265.5491,275.9787,84.1035,-0.00055571,-6.723e-05,0.0,0 STARLINK-5818,1 55785U 23028AW  24204.39966141 -.00006723  00000-0 -55571-3 0  9992,2 55785  69.9995 265.5491 0002955 275.9787  84.1035 14.98363336 77840,6950.09,96.105,574.009,569.901,0.0
55785.0,STARLINK-5818,PAYLOAD,2024-07-23 04:49:07,14.98330666,0.000319,69.9992,263.5295,273.4625,86.6169,9.7324e-05,1.068e-05,0.0,0 STARLINK-5818,1 55785U 23028AW  24205.20078592  .00001068  00000-0  97324-4 0  9995,2 55785  69.9992 263.5295 0003190 273.4625  86.6169 14.98330666 77961,6950.191,96.107,574.273,569.839,0.0
55785.0,STARLINK-5818,PAYLOAD,2024-07-23 09:37:32,14.98330143,0.0003196,69.9991,263.0246,273.511,86.5684,8.6261e-05,9.36e-06,0.0,0 STARLINK-5818,1 55785U 23028AW  24205.40106643  .00000936  00000-0  86261-4 0  9997,2 55785  69.9991 263.0246 0003196 273.5110  86.5684 14.98330143 78004,6950.192,96.107,574.279,569.836,0.0
55785.0,STARLINK-5818,PAYLOAD,2024-07-24 04:51:09,14.98329601,0.0003224,69.9989,261.005,271.6166,88.4623,-4.6033e-05,-6.42e-06,0.0,0 STARLINK-5818,1 55785U 23028AW  24206.20219051 -.00000642  00000-0 -46033-4 0  9993,2 55785  69.9989 261.0050 0003224 271.6166  88.4623 14.98329601 78117,6950.194,96.107,574.3,569.818,0.0
55785.0,STARLINK-5818,PAYLOAD,2024-07-24 14:27:57,14.98328353,0.0003305,69.9985,259.9947,268.8502,91.2278,-5.0735e-05,-6.98e-06,0.0,0 STARLINK-5818,1 55785U 23028AW  24206.60275142 -.00000698  00000-0 -50735-4 0  9995,2 55785  69.9985 259.9947 0003305 268.8502  91.2278 14.98328353 78184,6950.198,96.107,574.36,569.766,0.0
55785.0,STARLINK-5818,PAYLOAD,2024-07-25 04:53:09,14.98330923,0.0003457,69.9981,258.4794,270.1933,89.883,2.7127e-06,-6.1e-07,0.0,0 STARLINK-5818,1 55785U 23028AW  24207.20358794 -.00000061  00000-0  27127-5 0  9990,2 55785  69.9981 258.4794 0003457 270.1933  89.8830 14.98330923 78268,6950.19,96.107,574.458,569.652,0.0
55785.0,STARLINK-5818,PAYLOAD,2024-07-25 06:29:18,14.98331443,0.0003438,69.9981,258.3111,269.896,90.1805,8.5998e-06,1e-07,0.0,0 STARLINK-5818,1 55785U 23028AW  24207.27034738  .00000010  00000-0  85998-5 0  9999,2 55785  69.9981 258.3111 0003438 269.8960  90.1805 14.98331443 78281,6950.188,96.107,574.443,569.664,0.0
55785.0,STARLINK-5818,PAYLOAD,2024-07-25 09:41:34,14.98331906,0.0003417,69.9982,257.9746,269.7838,90.293,1.535e-05,9e-07,0.0,0 STARLINK-5818,1 55785U 23028AW  24207.40386678  .00000090  00000-0  15350-4 0  9999,2 55785  69.9982 257.9746 0003417 269.7838  90.2930 14.98331906 78308,6950.187,96.107,574.427,569.677,0.0
55785.0,STARLINK-5818,PAYLOAD,2024-07-26 04:55:10,14.98328434,0.0003364,69.9982,255.9547,268.2864,91.791,7.3317e-05,7.82e-06,0.0,0 STARLINK-5818,1 55785U 23028AW  24208.20498639  .00000782  00000-0  73317-4 0  9994,2 55785  69.9982 255.9547 0003364 268.2864  91.7910 14.98328434 78417,6950.198,96.107,574.401,569.725,0.0
55785.0,STARLINK-5818,PAYLOAD,2024-07-26 12:55:51,14.98330103,0.000329,69.9982,255.1128,268.903,91.1752,8.6627e-05,9.41e-06,0.0,0 STARLINK-5818,1 55785U 23028AW  24208.53878491  .00000941  00000-0  86627-4 0  9993,2 55785  69.9982 255.1128 0003290 268.9030  91.1752 14.98330103 78474,6950.193,96.107,574.344,569.771,0.0
55785.0,STARLINK-5818,PAYLOAD,2024-07-26 20:56:31,14.98330016,0.0003221,69.9983,254.2708,269.1304,90.9486,1.1249e-05,4.1e-07,0.0,0 STARLINK-5818,1 55785U 23028AW  24208.87258696  .00000041  00000-0  11249-4 0  9998,2 55785  69.9983 254.2708 0003221 269.1304  90.9486 14.98330016 78520,6950.193,96.107,574.296,569.819,0.0
55785.0,STARLINK-5818,PAYLOAD,2024-07-27 04:57:11,14.98333204,0.0003222,69.9982,253.4291,269.0058,91.0732,-3.353e-05,-4.93e-06,0.0,0 STARLINK-5818,1 55785U 23028AW  24209.20638584 -.00000493  00000-0 -33530-4 0  9994,2 55785  69.9982 253.4291 0003222 269.0058  91.0732 14.98333204 78565,6950.183,96.107,574.287,569.809,0.0
55785.0,STARLINK-5818,PAYLOAD,2024-07-27 06:33:19,14.98332855,0.000323,69.9982,253.2608,269.0405,91.0384,-3.5948e-05,-5.22e-06,0.0,0 STARLINK-5818,1 55785U 23028AW  24209.27314595 -.00000522  00000-0 -35948-4 0  9992,2 55785  69.9982 253.2608 0003230 269.0405  91.0384 14.98332855 78586,6950.184,96.107,574.294,569.804,0.0
55785.0,STARLINK-5818,PAYLOAD,2024-07-27 12:57:51,14.983339,0.0003224,69.9982,252.5874,269.1337,90.9452,-2.1193e-05,-3.46e-06,0.0,0 STARLINK-5818,1 55785U 23028AW  24209.54018433 -.00000346  00000-0 -21193-4 0  9995,2 55785  69.9982 252.5874 0003224 269.1337  90.9452 14.98333900 78622,6950.181,96.107,574.287,569.805,0.0
55785.0,STARLINK-5818,PAYLOAD,2024-07-28 04:59:12,14.98330033,0.0003128,69.9982,250.9037,268.7942,91.2859,-3.6064e-06,-1.36e-06,0.0,0 STARLINK-5818,1 55785U 23028AW  24210.20778580 -.00000136  00000-0 -36064-5 0  9997,2 55785  69.9982 250.9037 0003128 268.7942  91.2859 14.98330033 78714,6950.193,96.107,574.232,569.884,0.0
55785.0,STARLINK-5818,PAYLOAD,2024-07-28 12:59:53,14.9833062,0.0003254,69.998,250.0628,269.8281,90.2506,-1.9048e-05,-3.2e-06,0.0,0 STARLINK-5818,1 55785U 23028AW  24210.54158573 -.00000320  00000-0 -19048-4 0  9995,2 55785  69.9980 250.0628 0003254 269.8281  90.2506 14.98330620 78773,6950.191,96.107,574.318,569.794,0.0
55785.0,STARLINK-5818,PAYLOAD,2024-07-29 05:01:13,14.98328149,0.0003225,69.9981,248.3795,270.507,89.5719,-7.3213e-06,-1.8e-06,0.0,0 STARLINK-5818,1 55785U 23028AW  24211.20918717 -.00000180  00000-0 -73213-5 0  9992,2 55785  69.9981 248.3795 0003225 270.5070  89.5719 14.98328149 78862,6950.199,96.107,574.305,569.822,0.0
55785.0,STARLINK-5818,PAYLOAD,2024-07-29 09:49:37,14.98329191,0.0003188,69.9982,247.8755,265.2535,94.826,-1.1944e-05,-2.36e-06,0.0,0 STARLINK-5818,1 55785U 23028AW  24211.40946648 -.00000236  00000-0 -11944-4 0  9992,2 55785  69.9982 247.8755 0003188 265.2535  94.8260 14.98329191 78901,6950.195,96.107,574.276,569.845,0.0
